[{"OBJECT_NAME":"STARLINK-4186","OBJECT_ID":"2022-062BC","EPOCH":"2026-03-09T23:36:39.275424","MEAN_MOTION":15.08839852,"ECCENTRICITY":0.00016345,"INCLINATION":53.2188,"RA_OF_ASC_NODE":12.802,"ARG_OF_PERICENTER":93.4948,"MEAN_ANOMALY":266.6231,"EPHEMERIS_TYPE":0,"CLASSIFICATION_TYPE":"U","NORAD_CAT_ID":52880,"ELEMENT_SET_NO":999,"REV_AT_EPOCH":20611,"BSTAR":2.8197165e-5,"MEAN_MOTION_DOT":1.61e-6,"MEAN_MOTION_DDOT":0},{"OBJECT_NAME":"COSMOS 249","OBJECT_ID":"1968-091A","EPOCH":"2026-03-09T15:17:49.291584","MEAN_MOTION":12.97101302,"ECCENTRICITY":0.1001971,"INCLINATION":62.3465,"RA_OF_ASC_NODE":159.271,"ARG_OF_PERICENTER":1.1028,"MEAN_ANOMALY":359.1866,"EPHEMERIS_TYPE":0,"CLASSIFICATION_TYPE":"U","NORAD_CAT_ID":3504,"ELEMENT_SET_NO":999,"REV_AT_EPOCH":70757,"BSTAR":6.6439e-5,"MEAN_MOTION_DOT":1.09e-6,"MEAN_MOTION_DDOT":0}]
